[{"OBJECT_NAME":"STARLINK-33764","OBJECT_ID":"2025-071T","EPOCH":"2025-11-28T01:16:42.400128","MEAN_MOTION":15.30212284,"ECCENTRICITY":0.0001159,"INCLINATION":53.1615,"RA_OF_ASC_NODE":252.3539,"ARG_OF_PERICENTER":84.4189,"MEAN_ANOMALY":275.6944,"EPHEMERIS_TYPE":0,"CLASSIFICATION_TYPE":"U","NORAD_CAT_ID":63510,"ELEMENT_SET_NO":999,"REV_AT_EPOCH":3718,"BSTAR":0.00086091,"MEAN_MOTION_DOT":0.00025235,"MEAN_MOTION_DDOT":0},{"OBJECT_NAME":"STARLINK-33804","OBJECT_ID":"2025-071U","EPOCH":"2025-11-28T04:06:34.495776","MEAN_MOTION":15.30213302,"ECCENTRICITY":0.0001316,"INCLINATION":53.1596,"RA_OF_ASC_NODE":251.6653,"ARG_OF_PERICENTER":88.4126,"MEAN_ANOMALY":271.7026,"EPHEMERIS_TYPE":0,"CLASSIFICATION_TYPE":"U","NORAD_CAT_ID":63511,"ELEMENT_SET_NO":999,"REV_AT_EPOCH":3685,"BSTAR":0.00097159,"MEAN_MOTION_DOT":0.00028539,"MEAN_MOTION_DDOT":0},{"OBJECT_NAME":"STARLINK-33751","OBJECT_ID":"2025-071V","EPOCH":"2025-11-28T03:57:27.423072","MEAN_MOTION":15.30218741,"ECCENTRICITY":0.0001114,"INCLINATION":53.159,"RA_OF_ASC_NODE":251.6268,"ARG_OF_PERICENTER":84.5255,"MEAN_ANOMALY":275.5873,"EPHEMERIS_TYPE":0,"CLASSIFICATION_TYPE":"U","NORAD_CAT_ID":63512,"ELEMENT_SET_NO":999,"REV_AT_EPOCH":3720,"BSTAR":0.00090015,"MEAN_MOTION_DOT":0.00026411,"MEAN_MOTION_DDOT":0},{"OBJECT_NAME":"STARLINK-33750","OBJECT_ID":"2025-071W","EPOCH":"2025-11-28T02:27:58.118400","MEAN_MOTION":15.30218509,"ECCENTRICITY":0.0001471,"INCLINATION":53.1599,"RA_OF_ASC_NODE":251.9505,"ARG_OF_PERICENTER":76.2545,"MEAN_ANOMALY":283.862,"EPHEMERIS_TYPE":0,"CLASSIFICATION_TYPE":"U","NORAD_CAT_ID":63513,"ELEMENT_SET_NO":999,"REV_AT_EPOCH":3719,"BSTAR":0.0010375,"MEAN_MOTION_DOT":0.00030514,"MEAN_MOTION_DDOT":0},{"OBJECT_NAME":"STARLINK-33786","OBJECT_ID":"2025-071X","EPOCH":"2025-11-28T04:14:10.503744","MEAN_MOTION":15.3022371,"ECCENTRICITY":0.0001291,"INCLINATION":53.1606,"RA_OF_ASC_NODE":251.6969,"ARG_OF_PERICENTER":83.8748,"MEAN_ANOMALY":276.24,"EPHEMERIS_TYPE":0,"CLASSIFICATION_TYPE":"U","NORAD_CAT_ID":63514,"ELEMENT_SET_NO":999,"REV_AT_EPOCH":3684,"BSTAR":0.001019,"MEAN_MOTION_DOT":0.00029965,"MEAN_MOTION_DDOT":0},{"OBJECT_NAME":"STARLINK-33796","OBJECT_ID":"2025-071Y","EPOCH":"2025-11-28T01:37:47.449056","MEAN_MOTION":15.30270863,"ECCENTRICITY":0.0001853,"INCLINATION":53.1573,"RA_OF_ASC_NODE":251.7279,"ARG_OF_PERICENTER":113.1084,"MEAN_ANOMALY":247.0113,"EPHEMERIS_TYPE":0,"CLASSIFICATION_TYPE":"U","NORAD_CAT_ID":63515,"ELEMENT_SET_NO":999,"REV_AT_EPOCH":3721,"BSTAR":0.0016915,"MEAN_MOTION_DOT":0.00050187,"MEAN_MOTION_DDOT":0},{"OBJECT_NAME":"STARLINK-33785","OBJECT_ID":"2025-071Z","EPOCH":"2025-11-28T02:35:33.806688","MEAN_MOTION":15.30230564,"ECCENTRICITY":0.0001394,"INCLINATION":53.1603,"RA_OF_ASC_NODE":251.9804,"ARG_OF_PERICENTER":79.5945,"MEAN_ANOMALY":280.5213,"EPHEMERIS_TYPE":0,"CLASSIFICATION_TYPE":"U","NORAD_CAT_ID":63516,"ELEMENT_SET_NO":999,"REV_AT_EPOCH":3719,"BSTAR":0.0010856,"MEAN_MOTION_DOT":0.00031961,"MEAN_MOTION_DDOT":0},{"OBJECT_NAME":"STARLINK-33803","OBJECT_ID":"2025-071AA","EPOCH":"2025-11-27T05:25:45.654240","MEAN_MOTION":15.30201018,"ECCENTRICITY":0.00010314,"INCLINATION":53.1581,"RA_OF_ASC_NODE":255.716,"ARG_OF_PERICENTER":75.3356,"MEAN_ANOMALY":284.7759,"EPHEMERIS_TYPE":0,"CLASSIFICATION_TYPE":"U","NORAD_CAT_ID":63517,"ELEMENT_SET_NO":999,"REV_AT_EPOCH":3708,"BSTAR":0.00083226062,"MEAN_MOTION_DOT":0.00024372,"MEAN_MOTION_DDOT":0},{"OBJECT_NAME":"STARLINK-33807","OBJECT_ID":"2025-071AB","EPOCH":"2025-11-28T03:46:03.784800","MEAN_MOTION":15.30214296,"ECCENTRICITY":0.0001272,"INCLINATION":53.1576,"RA_OF_ASC_NODE":253.7087,"ARG_OF_PERICENTER":75.3861,"MEAN_ANOMALY":284.728,"EPHEMERIS_TYPE":0,"CLASSIFICATION_TYPE":"U","NORAD_CAT_ID":63518,"ELEMENT_SET_NO":999,"REV_AT_EPOCH":3719,"BSTAR":0.0010575,"MEAN_MOTION_DOT":0.00031106,"MEAN_MOTION_DDOT":0},{"OBJECT_NAME":"STARLINK-33787","OBJECT_ID":"2025-071AC","EPOCH":"2025-11-28T03:53:39.649344","MEAN_MOTION":15.30211691,"ECCENTRICITY":0.0001317,"INCLINATION":53.159,"RA_OF_ASC_NODE":253.7418,"ARG_OF_PERICENTER":87.9447,"MEAN_ANOMALY":272.1704,"EPHEMERIS_TYPE":0,"CLASSIFICATION_TYPE":"U","NORAD_CAT_ID":63519,"ELEMENT_SET_NO":999,"REV_AT_EPOCH":3682,"BSTAR":0.0013974,"MEAN_MOTION_DOT":0.00041272,"MEAN_MOTION_DDOT":0},{"OBJECT_NAME":"STARLINK-11669 [DTC]","OBJECT_ID":"2025-075A","EPOCH":"2025-11-28T05:05:30.355296","MEAN_MOTION":15.70994397,"ECCENTRICITY":0.0001563,"INCLINATION":42.9987,"RA_OF_ASC_NODE":45.0482,"ARG_OF_PERICENTER":230.3554,"MEAN_ANOMALY":129.7176,"EPHEMERIS_TYPE":0,"CLASSIFICATION_TYPE":"U","NORAD_CAT_ID":63548,"ELEMENT_SET_NO":999,"REV_AT_EPOCH":3729,"BSTAR":0.0025918,"MEAN_MOTION_DOT":0.00348711,"MEAN_MOTION_DDOT":0},{"OBJECT_NAME":"STARLINK-11665 [DTC]","OBJECT_ID":"2025-075B","EPOCH":"2025-11-28T04:12:10.285056","MEAN_MOTION":15.70872197,"ECCENTRICITY":0.0002172,"INCLINATION":43.0013,"RA_OF_ASC_NODE":45.6444,"ARG_OF_PERICENTER":264.0719,"MEAN_ANOMALY":95.9901,"EPHEMERIS_TYPE":0,"CLASSIFICATION_TYPE":"U","NORAD_CAT_ID":63549,"ELEMENT_SET_NO":999,"REV_AT_EPOCH":3728,"BSTAR":0.0016236,"MEAN_MOTION_DOT":0.00213612,"MEAN_MOTION_DDOT":0},{"OBJECT_NAME":"STARLINK-11667 [DTC]","OBJECT_ID":"2025-075C","EPOCH":"2025-11-27T22:36:31.374720","MEAN_MOTION":15.70903941,"ECCENTRICITY":0.0001091,"INCLINATION":43.0008,"RA_OF_ASC_NODE":47.3483,"ARG_OF_PERICENTER":285.8292,"MEAN_ANOMALY":74.2456,"EPHEMERIS_TYPE":0,"CLASSIFICATION_TYPE":"U","NORAD_CAT_ID":63550,"ELEMENT_SET_NO":999,"REV_AT_EPOCH":3724,"BSTAR":0.0018534,"MEAN_MOTION_DOT":0.00245179,"MEAN_MOTION_DDOT":0},{"OBJECT_NAME":"STARLINK-11695 [DTC]","OBJECT_ID":"2025-075D","EPOCH":"2025-11-28T05:06:48.917088","MEAN_MOTION":15.71085291,"ECCENTRICITY":0.0001634,"INCLINATION":42.9987,"RA_OF_ASC_NODE":45.0534,"ARG_OF_PERICENTER":244.0042,"MEAN_ANOMALY":116.0658,"EPHEMERIS_TYPE":0,"CLASSIFICATION_TYPE":"U","NORAD_CAT_ID":63551,"ELEMENT_SET_NO":999,"REV_AT_EPOCH":3729,"BSTAR":0.0028824,"MEAN_MOTION_DOT":0.00391364,"MEAN_MOTION_DDOT":0},{"OBJECT_NAME":"STARLINK-11685 [DTC]","OBJECT_ID":"2025-075E","EPOCH":"2025-11-28T03:49:14.121408","MEAN_MOTION":15.70886289,"ECCENTRICITY":0.0001654,"INCLINATION":42.9997,"RA_OF_ASC_NODE":45.5148,"ARG_OF_PERICENTER":275.7627,"MEAN_ANOMALY":84.3052,"EPHEMERIS_TYPE":0,"CLASSIFICATION_TYPE":"U","NORAD_CAT_ID":63552,"ELEMENT_SET_NO":999,"REV_AT_EPOCH":3728,"BSTAR":0.0018485,"MEAN_MOTION_DOT":0.00244321,"MEAN_MOTION_DDOT":0},{"OBJECT_NAME":"STARLINK-11697 [DTC]","OBJECT_ID":"2025-075F","EPOCH":"2025-11-27T21:50:39.048288","MEAN_MOTION":15.70958612,"ECCENTRICITY":0.0001382,"INCLINATION":42.9989,"RA_OF_ASC_NODE":47.0894,"ARG_OF_PERICENTER":313.0419,"MEAN_ANOMALY":47.0333,"EPHEMERIS_TYPE":0,"CLASSIFICATION_TYPE":"U","NORAD_CAT_ID":63553,"ELEMENT_SET_NO":999,"REV_AT_EPOCH":3724,"BSTAR":0.0016732,"MEAN_MOTION_DOT":0.00221152,"MEAN_MOTION_DDOT":0}]
