STARLINK-33764          
1 63510U 25071T   25332.05326852  .00025235  00000+0  86091-3 0  9999
2 63510  53.1615 252.3539 0001159  84.4189 275.6944 15.30212284 37181
STARLINK-33804          
1 63511U 25071U   25332.17123259  .00028539  00000+0  97159-3 0  9996
2 63511  53.1596 251.6653 0001316  88.4126 271.7026 15.30213302 36852
STARLINK-33751          
1 63512U 25071V   25332.16490073  .00026411  00000+0  90015-3 0  9998
2 63512  53.1590 251.6268 0001114  84.5255 275.5873 15.30218741 37209
STARLINK-33750          
1 63513U 25071W   25332.10275600  .00030514  00000+0  10375-2 0  9999
2 63513  53.1599 251.9505 0001471  76.2545 283.8620 15.30218509 37194
STARLINK-33786          
1 63514U 25071X   25332.17651046  .00029965  00000+0  10190-2 0  9992
2 63514  53.1606 251.6969 0001291  83.8748 276.2400 15.30223710 36847
STARLINK-33796          
1 63515U 25071Y   25332.06791029  .00050187  00000+0  16915-2 0  9998
2 63515  53.1573 251.7279 0001853 113.1084 247.0113 15.30270863 37210
STARLINK-33785          
1 63516U 25071Z   25332.10803017  .00031961  00000+0  10856-2 0  9992
2 63516  53.1603 251.9804 0001394  79.5945 280.5213 15.30230564 37196
STARLINK-33803          
1 63517U 25071AA  25331.22622285  .00024372  00000+0  83226-3 0  9991
2 63517  53.1581 255.7160 0001031  75.3356 284.7759 15.30201018 37088
STARLINK-33807          
1 63518U 25071AB  25332.15698825  .00031106  00000+0  10575-2 0  9997
2 63518  53.1576 253.7087 0001272  75.3861 284.7280 15.30214296 37190
STARLINK-33787          
1 63519U 25071AC  25332.16226446  .00041272  00000+0  13974-2 0  9996
2 63519  53.1590 253.7418 0001317  87.9447 272.1704 15.30211691 36821
STARLINK-11669 [DTC]    
1 63548U 25075A   25332.21215689  .00348711  00000+0  25918-2 0  9994
2 63548  42.9987  45.0482 0001563 230.3554 129.7176 15.70994397 37295
STARLINK-11665 [DTC]    
1 63549U 25075B   25332.17511904  .00213612  00000+0  16236-2 0  9993
2 63549  43.0013  45.6444 0002172 264.0719  95.9901 15.70872197 37288
STARLINK-11667 [DTC]    
1 63550U 25075C   25331.94202980  .00245179  00000+0  18534-2 0  9996
2 63550  43.0008  47.3483 0001091 285.8292  74.2456 15.70903941 37245
STARLINK-11695 [DTC]    
1 63551U 25075D   25332.21306617  .00391364  00000+0  28824-2 0  9991
2 63551  42.9987  45.0534 0001634 244.0042 116.0658 15.71085291 37299
STARLINK-11685 [DTC]    
1 63552U 25075E   25332.15919122  .00244321  00000+0  18485-2 0  9998
2 63552  42.9997  45.5148 0001654 275.7627  84.3052 15.70886289 37288
STARLINK-11697 [DTC]    
1 63553U 25075F   25331.91017417  .00221152  00000+0  16732-2 0  9998
2 63553  42.9989  47.0894 0001382 313.0419  47.0333 15.70958612 37242
